HORYU-4                 
1 41340U 16012D   19258.46560365  .00000394  00000-0  23133-4 0  9994
2 41340  31.0049 289.1232 0013968 289.8391  70.0739 15.01308235196364
E-ST@R-II               
1 41459U 16025D   19258.79907096  .00001697  00000-0  89883-4 0  9992
2 41459  98.1016 349.7839 0167793  59.1868 302.5728 15.05643699185956
AAUSAT 4                
1 41460U 16025E   19258.79470603  .00001924  00000-0  99106-4 0  9995
2 41460  98.0955 351.2475 0157710  51.0483 310.4667 15.07602048186096
DIWATA-1                
1 41463U 98067HT  19258.81210227  .00023801  00000-0  10097-3 0  9990
2 41463  51.6287 142.9151 0002374 135.7673 311.5042 15.85201924193893
BEESAT-4                
1 41619U 16040W   19257.74141691  .00000976  00000-0  44041-4 0  9998
2 41619  97.3598 318.2944 0012974  76.7146 283.5537 15.23289278167261
CANX-7                  
1 41788U 16059F   19258.82971052  .00003325  00000-0  50206-3 0  9997
2 41788  98.2430 335.7121 0029562  97.3181 263.1375 14.74712956159144
RAVAN                   
1 41849U 16067B   19258.28347205  .00000405  00000-0  39211-4 0  9991
2 41849  97.9227 358.7415 0009521  89.8701 270.3612 14.98287117155265
CELTEE 1                
1 41850U 16067C   19258.23603667  .00000531  00000-0  51296-4 0  9992
2 41850  97.9201 357.1747 0010583  89.1981 271.0453 14.97047021155171
OPTICUBE 04             
1 41851U 16067D   19258.25640589 -.00000485  00000-0 -37039-4 0  9998
2 41851  97.9190 356.9495 0010190  89.7992 270.4397 14.96829030155164
AEROCUBE 8D             
1 41852U 16067E   19257.86306326 -.00000196  00000-0 -11811-4 0  9992
2 41852  97.9196 356.3769 0010845  91.9284 268.3179 14.96749807155083
AEROCUBE 8C             
1 41853U 16067F   19258.82406681  .00000712  00000-0  67572-4 0  9992
2 41853  97.9198 357.2783 0011645  91.2551 269.0005 14.96716021155225
PROMETHEUS 2-1          
1 41854U 16067G   19258.37695736  .00000170  00000-0  20075-4 0  9999
2 41854  97.9211 357.0011 0011926  90.5456 269.7131 14.96956094155168
PROMETHEUS 2-3          
1 41855U 16067H   19258.17844712  .00000081  00000-0  12359-4 0  9995
2 41855  97.9213 356.8194 0012081  91.4048 268.8557 14.96961903155134
INS-1B                  
1 41954U 17008G   19258.39689551  .00000933  00000-0  41280-4 0  9994
2 41954  97.3924 322.2463 0009023 183.1002 177.0181 15.24101341143319
BGUSAT                  
1 41999U 17008BD  19258.38378159  .00001522  00000-0  61317-4 0  9999
2 41999  97.4005 324.9858 0007746 194.5255 165.5762 15.26365354142822
DIDO-2                  
1 42000U 17008BE  19258.12739633  .00000602  00000-0  27772-4 0  9998
2 42000  97.3936 322.5321 0007790 202.8918 157.1973 15.24007101142670
PEASSS                  
1 42015U 17008BV  19258.49393917  .00000808  00000-0  35261-4 0  9995
2 42015  97.3946 323.9903 0005611 203.0235 157.0753 15.24998786143284
AL-FARABI 1             
1 42016U 17008BW  19257.73351373  .00001043  00000-0  43799-4 0  9999
2 42016  97.3966 323.8843 0005409 204.4736 155.6247 15.25668716143320
NAYIF-1 (EO-88)         
1 42017U 17008BX  19258.17817156  .00001045  00000-0  43832-4 0  9995
2 42017  97.3960 324.3347 0005452 203.0501 157.0494 15.25704528143415
ALTAIR PATHFINDER       
1 42711U 98067LS  19258.24998553  .00066207  00000-0  24108-3 0  9994
2 42711  51.6317 188.3913 0003832 122.1689 237.9688 15.87823259133121
NSIGHT                  
1 42726U 98067MF  19258.41010757  .00025230  00000-0  17276-3 0  9999
2 42726  51.6355 213.9244 0004979 137.3457 222.7930 15.74579527131789
UCLSAT                  
1 42765U 17036A   19257.72063060  .00000805  00000-0  37277-4 0  9992
2 42765  97.3430 313.8157 0009759 282.1878  77.8265 15.22879936123863
LITUANICASAT-2          
1 42768U 17036D   19258.74526539  .00001241  00000-0  55591-4 0  9997
2 42768  97.3467 314.4743 0013310 266.2641  93.7074 15.23029070123865
AALTO-1                 
1 42775U 17036L   19258.38888615  .00000515  00000-0  25950-4 0  9990
2 42775  97.3411 313.0097 0012264 269.0786  90.9045 15.21431130123697
URSA MAIOR              
1 42776U 17036M   19258.40749045  .00000569  00000-0  28233-4 0  9993
2 42776  97.3421 313.2048 0012081 268.7734  91.2118 15.21572353123703
COMPASS 2               
1 42777U 17036N   19258.75908519  .00001001  00000-0  45372-4 0  9990
2 42777  97.3462 314.9542 0010781 267.5644  92.4359 15.23079527123828
DIAMOND RED             
1 42783U 17036U   19257.86352826  .00000646  00000-0  31017-4 0  9997
2 42783  97.3429 313.4844 0010443 282.8585  77.1485 15.22315242123664
PEGASUS                 
1 42784U 17036V   19258.67967471  .00000714  00000-0  33638-4 0  9993
2 42784  97.3432 314.5451 0010338 278.8758  81.1308 15.22624839123805
DIAMOND GREEN           
1 42785U 17036W   19258.65112078  .00000581  00000-0  28182-4 0  9997
2 42785  97.3430 314.2804 0010328 280.2678  79.7393 15.22314922123772
DIAMOND BLUE            
1 42786U 17036X   19258.38737393  .00000659  00000-0  31554-4 0  9994
2 42786  97.3432 314.0203 0010178 281.7369  78.2726 15.22315419123734
NUDTSAT                 
1 42787U 17036Y   19257.89742098  .00001532  00000-0  66784-4 0  9992
2 42787  97.3458 314.6067 0010363 284.2538  75.7537 15.23652607123577
SUCHAI                  
1 42788U 17036Z   19258.72766704  .00000843  00000-0  38693-4 0  9998
2 42788  97.3437 314.9524 0009872 277.4111  82.6004 15.23063490123909
SKCUBE                  
1 42789U 17036AA  19257.82966190  .00000823  00000-0  37979-4 0  9994
2 42789  97.3434 313.9992 0009754 281.3534  78.6606 15.22952040123682
VZLUSAT-1               
1 42790U 17036AB  19257.75312431  .00001117  00000-0  49478-4 0  9995
2 42790  97.3451 314.4677 0009290 280.2007  79.8182 15.23642287123702
ROBUSTA-1B              
1 42792U 17036AD  19258.21062030  .00000890  00000-0  40612-4 0  9994
2 42792  97.3434 314.5421 0009323 280.6248  79.3939 15.23127295123769
CICERO 6                
1 42793U 17036AE  19258.75478816  .00000556  00000-0  26813-4 0  9993
2 42793  97.3415 314.7853 0008600 280.7770  79.2499 15.22680495123909
D-SAT                   
1 42794U 17036AF  19258.18569286  .00000220  00000-0  24559-4 0  9996
2 42794  97.5318 298.9592 0125850 206.0295 153.4561 14.91131438121521
CORVUS BC2              
1 42846U 17042X   19257.73738525  .00000006  00000-0  58062-5 0  9994
2 42846  97.5536 148.1774 0010947 116.9881 243.2458 14.91998195118147
CORVUS BC1              
1 42847U 17042Y   19258.22119797 -.00000033  00000-0  20166-5 0  9999
2 42847  97.5537 148.7621 0010659 114.9559 245.2769 14.92098767118218
MIRATA                  
1 43015U 17073C   19257.83588427  .00000428  00000-0  39327-4 0  9992
2 43015  97.7163 175.6168 0253735 230.3605 127.4972 14.79107457 98325
MAKERSAT 0              
1 43016U 17073D   19258.27149958  .00000307  00000-0  29848-4 0  9997
2 43016  97.7198 176.2382 0256076 229.4159 128.4516 14.78827826 98371
ASTERIA                 
1 43020U 98067NH  19258.34802824  .00023248  00000-0  16500-3 0  9999
2 43020  51.6429 225.7909 0003066  95.8584 264.2764 15.73805828103806
DELLINGR (RBLE)         
1 43021U 98067NJ  19258.54618532  .00007822  00000-0  85897-4 0  9999
2 43021  51.6366 242.7548 0003046  79.7808 280.3530 15.64275120103595
AEROCUBE 7B (OCSD B)    
1 43042U 17071F   19258.71646119  .00002114  00000-0  59029-4 0  9996
2 43042  51.6394 337.5525 0004946 115.3539 244.7959 15.41613646 99817
AEROCUBE 7C (OCSD C)    
1 43043U 17071G   19258.19786487  .00001220  00000-0  38154-4 0  9995
2 43043  51.6396 340.1039 0005168 117.5220 242.6291 15.41610794 99703
CHEFSAT                 
1 43044U 17071H   19258.80658397  .00003729  00000-0  87954-4 0  9990
2 43044  51.6397 330.0663 0004871 118.4547 241.6931 15.44542878 99898
ASGARDIA 1              
1 43049U 17071N   19258.20770519  .00002094  00000-0  58323-4 0  9992
2 43049  51.6404 339.4581 0002665 129.5843 230.5378 15.41731805 99704
ISARA                   
1 43050U 17071P   19258.46262467  .00003515  00000-0  84816-4 0  9995
2 43050  51.6386 332.9655 0002398 125.0263 235.0949 15.44027508 99812
PROPCUBE 2 (FAUNA)      
1 43052U 17071R   19258.52080418  .00002167  00000-0  59439-4 0  9993
2 43052  51.6402 337.0679 0002608 126.4675 233.6551 15.42038848 99765
CORVUS BC3              
1 43118U 18004H   19258.76984443  .00000495  00000-0  24130-4 0  9992
2 43118  97.4793 325.8020 0008988 305.0123  55.0269 15.22940289 93039
MICROMAS-2A             
1 43131U 18004W   19258.50181503  .00001196  00000-0  51863-4 0  9997
2 43131  97.4823 326.4328 0007947 307.7463  52.3053 15.24327294 93045
SPACEBEE-4              
1 43139U 18004AE  19257.81616694  .00001773  00000-0  73445-4 0  9993
2 43139  97.4845 326.3659 0007406 313.7162  46.3462 15.25239332 92969
SPACEBEE-3              
1 43140U 18004AF  19258.41881340  .00002174  00000-0  87865-4 0  9991
2 43140  97.4856 327.2968 0007099 310.2243  49.8374 15.25827213 93081
SPACEBEE-2              
1 43141U 18004AG  19258.44394740  .00002321  00000-0  93059-4 0  9994
2 43141  97.4860 327.4328 0006973 309.5085  50.5536 15.26026304 93097
SPACEBEE-1              
1 43142U 18004AH  19258.33268820  .00002558  00000-0  10158-3 0  9992
2 43142  97.4866 327.4506 0006993 310.0733  49.9891 15.26250431 93075
CICERO 7                
1 43143U 18004AJ  19258.32107307  .00001103  00000-0  47879-4 0  9990
2 43143  97.4808 326.4666 0006353 321.6356  38.4428 15.24442025 93032
GOMX-4B                 
1 43196U 18015E   19257.88559391  .00000288  00000-0  14816-4 0  9992
2 43196  97.4018  24.2437 0019115   2.1422 357.9891 15.24004248 89777
GOMX-4A                 
1 43197U 18015F   19258.73451522  .00000386  00000-0  18794-4 0  9993
2 43197  97.4031  25.1138 0019385 359.9382 105.6748 15.24107162 89912
1KUNS-PF                
1 43466U 98067NP  19258.40430961  .00020664  00000-0  17932-3 0  9998
2 43466  51.6350 243.2551 0002065  78.9682 281.1547 15.69077228 76839
